<?xml version="1.0" encoding="UTF-8"?>
<ndm xmlns:xsi="http://www.w3.org/2001/XMLSchema-instance" xsi:noNamespaceSchemaLocation="https://sanaregistry.org/r/ndmxml_unqualified/ndmxml-2.0.0-master-2.0.xsd">
<omm id="CCSDS_OMM_VERS" version="2.0">
<header><CREATION_DATE/><ORIGINATOR/></header><body><segment><metadata><OBJECT_NAME>QIANFAN-65</OBJECT_NAME><OBJECT_ID>2025-016L</OBJECT_ID><CENTER_NAME>EARTH</CENTER_NAME><REF_FRAME>TEME</REF_FRAME><TIME_SYSTEM>UTC</TIME_SYSTEM><MEAN_ELEMENT_THEORY>SGP4</MEAN_ELEMENT_THEORY></metadata><data><meanElements><EPOCH>2025-12-29T11:15:21.980160</EPOCH><MEAN_MOTION>13.50978969</MEAN_MOTION><ECCENTRICITY>.0012119</ECCENTRICITY><INCLINATION>88.9768</INCLINATION><RA_OF_ASC_NODE>101.3310</RA_OF_ASC_NODE><ARG_OF_PERICENTER>296.1850</ARG_OF_PERICENTER><MEAN_ANOMALY>63.8054</MEAN_ANOMALY></meanElements><tleParameters><EPHEMERIS_TYPE>0</EPHEMERIS_TYPE><CLASSIFICATION_TYPE>U</CLASSIFICATION_TYPE><NORAD_CAT_ID>62795</NORAD_CAT_ID><ELEMENT_SET_NO>999</ELEMENT_SET_NO><REV_AT_EPOCH>4950</REV_AT_EPOCH><BSTAR>.28325E-3</BSTAR><MEAN_MOTION_DOT>.195E-5</MEAN_MOTION_DOT><MEAN_MOTION_DDOT>0</MEAN_MOTION_DDOT></tleParameters></data></segment></body></omm>
<omm id="CCSDS_OMM_VERS" version="2.0">
<header><CREATION_DATE/><ORIGINATOR/></header><body><segment><metadata><OBJECT_NAME>QIANFAN-66</OBJECT_NAME><OBJECT_ID>2025-016M</OBJECT_ID><CENTER_NAME>EARTH</CENTER_NAME><REF_FRAME>TEME</REF_FRAME><TIME_SYSTEM>UTC</TIME_SYSTEM><MEAN_ELEMENT_THEORY>SGP4</MEAN_ELEMENT_THEORY></metadata><data><meanElements><EPOCH>2025-12-29T10:10:13.967328</EPOCH><MEAN_MOTION>13.50982591</MEAN_MOTION><ECCENTRICITY>.0013258</ECCENTRICITY><INCLINATION>88.9786</INCLINATION><RA_OF_ASC_NODE>101.3094</RA_OF_ASC_NODE><ARG_OF_PERICENTER>290.7796</ARG_OF_PERICENTER><MEAN_ANOMALY>69.1934</MEAN_ANOMALY></meanElements><tleParameters><EPHEMERIS_TYPE>0</EPHEMERIS_TYPE><CLASSIFICATION_TYPE>U</CLASSIFICATION_TYPE><NORAD_CAT_ID>62796</NORAD_CAT_ID><ELEMENT_SET_NO>999</ELEMENT_SET_NO><REV_AT_EPOCH>4954</REV_AT_EPOCH><BSTAR>.28804E-3</BSTAR><MEAN_MOTION_DOT>.198E-5</MEAN_MOTION_DOT><MEAN_MOTION_DDOT>0</MEAN_MOTION_DDOT></tleParameters></data></segment></body></omm>
<omm id="CCSDS_OMM_VERS" version="2.0">
<header><CREATION_DATE/><ORIGINATOR/></header><body><segment><metadata><OBJECT_NAME>QIANFAN-67</OBJECT_NAME><OBJECT_ID>2025-016N</OBJECT_ID><CENTER_NAME>EARTH</CENTER_NAME><REF_FRAME>TEME</REF_FRAME><TIME_SYSTEM>UTC</TIME_SYSTEM><MEAN_ELEMENT_THEORY>SGP4</MEAN_ELEMENT_THEORY></metadata><data><meanElements><EPOCH>2025-12-29T10:16:16.794624</EPOCH><MEAN_MOTION>13.50986762</MEAN_MOTION><ECCENTRICITY>.0013248</ECCENTRICITY><INCLINATION>88.9776</INCLINATION><RA_OF_ASC_NODE>101.3329</RA_OF_ASC_NODE><ARG_OF_PERICENTER>298.6273</ARG_OF_PERICENTER><MEAN_ANOMALY>61.3546</MEAN_ANOMALY></meanElements><tleParameters><EPHEMERIS_TYPE>0</EPHEMERIS_TYPE><CLASSIFICATION_TYPE>U</CLASSIFICATION_TYPE><NORAD_CAT_ID>62797</NORAD_CAT_ID><ELEMENT_SET_NO>999</ELEMENT_SET_NO><REV_AT_EPOCH>4951</REV_AT_EPOCH><BSTAR>.28581E-3</BSTAR><MEAN_MOTION_DOT>.196E-5</MEAN_MOTION_DOT><MEAN_MOTION_DDOT>0</MEAN_MOTION_DDOT></tleParameters></data></segment></body></omm>
<omm id="CCSDS_OMM_VERS" version="2.0">
<header><CREATION_DATE/><ORIGINATOR/></header><body><segment><metadata><OBJECT_NAME>QIANFAN-68</OBJECT_NAME><OBJECT_ID>2025-016P</OBJECT_ID><CENTER_NAME>EARTH</CENTER_NAME><REF_FRAME>TEME</REF_FRAME><TIME_SYSTEM>UTC</TIME_SYSTEM><MEAN_ELEMENT_THEORY>SGP4</MEAN_ELEMENT_THEORY></metadata><data><meanElements><EPOCH>2025-12-29T10:04:16.729248</EPOCH><MEAN_MOTION>13.50989118</MEAN_MOTION><ECCENTRICITY>.0013294</ECCENTRICITY><INCLINATION>88.9779</INCLINATION><RA_OF_ASC_NODE>101.3795</RA_OF_ASC_NODE><ARG_OF_PERICENTER>296.6378</ARG_OF_PERICENTER><MEAN_ANOMALY>63.3411</MEAN_ANOMALY></meanElements><tleParameters><EPHEMERIS_TYPE>0</EPHEMERIS_TYPE><CLASSIFICATION_TYPE>U</CLASSIFICATION_TYPE><NORAD_CAT_ID>62798</NORAD_CAT_ID><ELEMENT_SET_NO>999</ELEMENT_SET_NO><REV_AT_EPOCH>4949</REV_AT_EPOCH><BSTAR>.28222E-3</BSTAR><MEAN_MOTION_DOT>.194E-5</MEAN_MOTION_DOT><MEAN_MOTION_DDOT>0</MEAN_MOTION_DDOT></tleParameters></data></segment></body></omm>
<omm id="CCSDS_OMM_VERS" version="2.0">
<header><CREATION_DATE/><ORIGINATOR/></header><body><segment><metadata><OBJECT_NAME>QIANFAN-69</OBJECT_NAME><OBJECT_ID>2025-016Q</OBJECT_ID><CENTER_NAME>EARTH</CENTER_NAME><REF_FRAME>TEME</REF_FRAME><TIME_SYSTEM>UTC</TIME_SYSTEM><MEAN_ELEMENT_THEORY>SGP4</MEAN_ELEMENT_THEORY></metadata><data><meanElements><EPOCH>2025-12-29T10:27:58.654656</EPOCH><MEAN_MOTION>13.50991889</MEAN_MOTION><ECCENTRICITY>.0014046</ECCENTRICITY><INCLINATION>88.9758</INCLINATION><RA_OF_ASC_NODE>101.2436</RA_OF_ASC_NODE><ARG_OF_PERICENTER>297.8141</ARG_OF_PERICENTER><MEAN_ANOMALY>62.1586</MEAN_ANOMALY></meanElements><tleParameters><EPHEMERIS_TYPE>0</EPHEMERIS_TYPE><CLASSIFICATION_TYPE>U</CLASSIFICATION_TYPE><NORAD_CAT_ID>62799</NORAD_CAT_ID><ELEMENT_SET_NO>999</ELEMENT_SET_NO><REV_AT_EPOCH>4953</REV_AT_EPOCH><BSTAR>.26607E-3</BSTAR><MEAN_MOTION_DOT>.184E-5</MEAN_MOTION_DOT><MEAN_MOTION_DDOT>0</MEAN_MOTION_DDOT></tleParameters></data></segment></body></omm>
<omm id="CCSDS_OMM_VERS" version="2.0">
<header><CREATION_DATE/><ORIGINATOR/></header><body><segment><metadata><OBJECT_NAME>QIANFAN-70</OBJECT_NAME><OBJECT_ID>2025-016R</OBJECT_ID><CENTER_NAME>EARTH</CENTER_NAME><REF_FRAME>TEME</REF_FRAME><TIME_SYSTEM>UTC</TIME_SYSTEM><MEAN_ELEMENT_THEORY>SGP4</MEAN_ELEMENT_THEORY></metadata><data><meanElements><EPOCH>2025-12-29T10:51:47.740032</EPOCH><MEAN_MOTION>13.50982829</MEAN_MOTION><ECCENTRICITY>.0013635</ECCENTRICITY><INCLINATION>88.9779</INCLINATION><RA_OF_ASC_NODE>101.3840</RA_OF_ASC_NODE><ARG_OF_PERICENTER>286.8907</ARG_OF_PERICENTER><MEAN_ANOMALY>73.0749</MEAN_ANOMALY></meanElements><tleParameters><EPHEMERIS_TYPE>0</EPHEMERIS_TYPE><CLASSIFICATION_TYPE>U</CLASSIFICATION_TYPE><NORAD_CAT_ID>62800</NORAD_CAT_ID><ELEMENT_SET_NO>999</ELEMENT_SET_NO><REV_AT_EPOCH>4949</REV_AT_EPOCH><BSTAR>.287E-3</BSTAR><MEAN_MOTION_DOT>.197E-5</MEAN_MOTION_DOT><MEAN_MOTION_DDOT>0</MEAN_MOTION_DDOT></tleParameters></data></segment></body></omm>
<omm id="CCSDS_OMM_VERS" version="2.0">
<header><CREATION_DATE/><ORIGINATOR/></header><body><segment><metadata><OBJECT_NAME>QIANFAN-71</OBJECT_NAME><OBJECT_ID>2025-016S</OBJECT_ID><CENTER_NAME>EARTH</CENTER_NAME><REF_FRAME>TEME</REF_FRAME><TIME_SYSTEM>UTC</TIME_SYSTEM><MEAN_ELEMENT_THEORY>SGP4</MEAN_ELEMENT_THEORY></metadata><data><meanElements><EPOCH>2025-12-29T10:45:45.337824</EPOCH><MEAN_MOTION>13.50982331</MEAN_MOTION><ECCENTRICITY>.0013986</ECCENTRICITY><INCLINATION>88.9773</INCLINATION><RA_OF_ASC_NODE>101.3629</RA_OF_ASC_NODE><ARG_OF_PERICENTER>301.7676</ARG_OF_PERICENTER><MEAN_ANOMALY>58.2112</MEAN_ANOMALY></meanElements><tleParameters><EPHEMERIS_TYPE>0</EPHEMERIS_TYPE><CLASSIFICATION_TYPE>U</CLASSIFICATION_TYPE><NORAD_CAT_ID>62801</NORAD_CAT_ID><ELEMENT_SET_NO>999</ELEMENT_SET_NO><REV_AT_EPOCH>4949</REV_AT_EPOCH><BSTAR>.27993E-3</BSTAR><MEAN_MOTION_DOT>.193E-5</MEAN_MOTION_DOT><MEAN_MOTION_DDOT>0</MEAN_MOTION_DDOT></tleParameters></data></segment></body></omm>
<omm id="CCSDS_OMM_VERS" version="2.0">
<header><CREATION_DATE/><ORIGINATOR/></header><body><segment><metadata><OBJECT_NAME>QIANFAN-72</OBJECT_NAME><OBJECT_ID>2025-016T</OBJECT_ID><CENTER_NAME>EARTH</CENTER_NAME><REF_FRAME>TEME</REF_FRAME><TIME_SYSTEM>UTC</TIME_SYSTEM><MEAN_ELEMENT_THEORY>SGP4</MEAN_ELEMENT_THEORY></metadata><data><meanElements><EPOCH>2025-12-29T09:22:47.608320</EPOCH><MEAN_MOTION>13.50982116</MEAN_MOTION><ECCENTRICITY>.0017316</ECCENTRICITY><INCLINATION>88.9763</INCLINATION><RA_OF_ASC_NODE>101.3805</RA_OF_ASC_NODE><ARG_OF_PERICENTER>309.6036</ARG_OF_PERICENTER><MEAN_ANOMALY>50.3586</MEAN_ANOMALY></meanElements><tleParameters><EPHEMERIS_TYPE>0</EPHEMERIS_TYPE><CLASSIFICATION_TYPE>U</CLASSIFICATION_TYPE><NORAD_CAT_ID>62802</NORAD_CAT_ID><ELEMENT_SET_NO>999</ELEMENT_SET_NO><REV_AT_EPOCH>4947</REV_AT_EPOCH><BSTAR>.28306E-3</BSTAR><MEAN_MOTION_DOT>.195E-5</MEAN_MOTION_DOT><MEAN_MOTION_DDOT>0</MEAN_MOTION_DDOT></tleParameters></data></segment></body></omm>

</ndm>
