QIANFAN-65              
1 62795U 25016L   25363.46900440  .00000195  00000+0  28325-3 0  9996
2 62795  88.9768 101.3310 0012119 296.1850  63.8054 13.50978969 49502
QIANFAN-66              
1 62796U 25016M   25363.42377277  .00000198  00000+0  28804-3 0  9994
2 62796  88.9786 101.3094 0013258 290.7796  69.1934 13.50982591 49542
QIANFAN-67              
1 62797U 25016N   25363.42797216  .00000196  00000+0  28581-3 0  9994
2 62797  88.9776 101.3329 0013248 298.6273  61.3546 13.50986762 49513
QIANFAN-68              
1 62798U 25016P   25363.41963807  .00000194  00000+0  28222-3 0  9995
2 62798  88.9779 101.3795 0013294 296.6378  63.3411 13.50989118 49497
QIANFAN-69              
1 62799U 25016Q   25363.43609554  .00000184  00000+0  26607-3 0  9998
2 62799  88.9758 101.2436 0014046 297.8141  62.1586 13.50991889 49536
QIANFAN-70              
1 62800U 25016R   25363.45263588  .00000197  00000+0  28700-3 0  9996
2 62800  88.9779 101.3840 0013635 286.8907  73.0749 13.50982829 49494
QIANFAN-71              
1 62801U 25016S   25363.44844141  .00000193  00000+0  27993-3 0  9995
2 62801  88.9773 101.3629 0013986 301.7676  58.2112 13.50982331 49490
QIANFAN-72              
1 62802U 25016T   25363.39082880  .00000195  00000+0  28306-3 0  9995
2 62802  88.9763 101.3805 0017316 309.6036  50.3586 13.50982116 49471
